start=new Date('2022-07-11T00:00:00.000Z').valueOf();
sats=[{"NORAD_CAT_ID":"49423","TLE_LINE1":"1 49423U 21104R   22191.82807825 -.00000879  00000-0 -37116-4 0  9993","DECAY_DATE":null,"MEAN_MOTION_DDOT":"0.0000000000000","SITE":"AFETR","ARG_OF_PERICENTER":"64.8750","EPHEMERIS_TYPE":"0","BSTAR":"-0.00003711600000","CLASSIFICATION_TYPE":"U","EPOCH":"2022-07-10T19:52:25.960800","APOAPSIS":"542.018","MEAN_MOTION_DOT":"-0.00000879","ECCENTRICITY":"0.00032470","PERIAPSIS":"537.525","MEAN_ANOMALY":"295.2579","MEAN_ELEMENT_THEORY":"SGP4","GP_ID":"207875252","OBJECT_NAME":"STARLINK-3149","MEAN_MOTION":"15.08831419","RA_OF_ASC_NODE":"115.0258","ELEMENT_SET_NO":"999","SEMIMAJOR_AXIS":"6917.907","PERIOD":"95.438","CENTER_NAME":"EARTH","REF_FRAME":"TEME","LAUNCH_DATE":"2021-11-13","RCS_SIZE":"LARGE","OBJECT_ID":"2021-104R","OBJECT_TYPE":"PAYLOAD","TLE_LINE2":"2 49423  53.2205 115.0258 0003247  64.8750 295.2579 15.08831419 36658","REV_AT_EPOCH":"3665","FILE":"3511318","TIME_SYSTEM":"UTC","COUNTRY_CODE":"US","INCLINATION":"53.2205"},{"ECCENTRICITY":"0.00034450","PERIAPSIS":"537.394","APOAPSIS":"542.160","MEAN_MOTION_DOT":"0.00000146","ARG_OF_PERICENTER":"65.5792","EPHEMERIS_TYPE":"0","CLASSIFICATION_TYPE":"U","BSTAR":"0.00002735200000","EPOCH":"2022-07-10T20:08:20.651424","NORAD_CAT_ID":"49424","TLE_LINE1":"1 49424U 21104S   22191.83912791  .00000146  00000-0  27352-4 0  9990","DECAY_DATE":null,"SITE":"AFETR","MEAN_MOTION_DDOT":"0.0000000000000","TLE_LINE2":"2 49424  53.2193 114.9698 0003445  65.5792 294.5559 15.08829736 37734","REV_AT_EPOCH":"3773","FILE":"3511252","TIME_SYSTEM":"UTC","INCLINATION":"53.2193","COUNTRY_CODE":"US","ELEMENT_SET_NO":"999","SEMIMAJOR_AXIS":"6917.912","PERIOD":"95.438","CENTER_NAME":"EARTH","REF_FRAME":"TEME","LAUNCH_DATE":"2021-11-13","RCS_SIZE":"LARGE","OBJECT_TYPE":"PAYLOAD","OBJECT_ID":"2021-104S","MEAN_MOTION":"15.08829736","RA_OF_ASC_NODE":"114.9698","MEAN_ANOMALY":"294.5559","MEAN_ELEMENT_THEORY":"SGP4","GP_ID":"207851028","OBJECT_NAME":"STARLINK-3135"},{"RA_OF_ASC_NODE":"115.0373","MEAN_MOTION":"15.08825262","OBJECT_NAME":"STARLINK-3139","GP_ID":"207851542","MEAN_ANOMALY":"303.5923","MEAN_ELEMENT_THEORY":"SGP4","INCLINATION":"53.2177","COUNTRY_CODE":"US","TIME_SYSTEM":"UTC","FILE":"3511273","REV_AT_EPOCH":"3773","TLE_LINE2":"2 49425  53.2177 115.0373 0002784  56.5335 303.5923 15.08825262 37733","OBJECT_ID":"2021-104T","OBJECT_TYPE":"PAYLOAD","LAUNCH_DATE":"2021-11-13","RCS_SIZE":"LARGE","REF_FRAME":"TEME","PERIOD":"95.438","CENTER_NAME":"EARTH","SEMIMAJOR_AXIS":"6917.925","ELEMENT_SET_NO":"999","EPOCH":"2022-07-10T19:47:08.117664","CLASSIFICATION_TYPE":"U","BSTAR":"-0.00024850000000","ARG_OF_PERICENTER":"56.5335","EPHEMERIS_TYPE":"0","MEAN_MOTION_DDOT":"0.0000000000000","SITE":"AFETR","DECAY_DATE":null,"TLE_LINE1":"1 49425U 21104T   22191.82439951 -.00004240  00000-0 -24850-3 0  9992","NORAD_CAT_ID":"49425","PERIAPSIS":"537.864","ECCENTRICITY":"0.00027840","MEAN_MOTION_DOT":"-0.00004240","APOAPSIS":"541.716"},{"APOAPSIS":"541.434","MEAN_MOTION_DOT":"0.00007487","ECCENTRICITY":"0.00023940","PERIAPSIS":"538.121","TLE_LINE1":"1 49426U 21104U   22191.83175458  .00007487  00000-0  48812-3 0  9991","NORAD_CAT_ID":"49426","DECAY_DATE":null,"SITE":"AFETR","MEAN_MOTION_DDOT":"0.0000000000000","EPHEMERIS_TYPE":"0","ARG_OF_PERICENTER":"55.4068","BSTAR":"0.00048812000000","CLASSIFICATION_TYPE":"U","EPOCH":"2022-07-10T19:57:43.595712","SEMIMAJOR_AXIS":"6917.912","PERIOD":"95.438","CENTER_NAME":"EARTH","ELEMENT_SET_NO":"999","REF_FRAME":"TEME","RCS_SIZE":"LARGE","LAUNCH_DATE":"2021-11-13","OBJECT_TYPE":"PAYLOAD","OBJECT_ID":"2021-104U","TLE_LINE2":"2 49426  53.2191 115.0065 0002394  55.4068 304.7150 15.08829520 37732","FILE":"3511293","REV_AT_EPOCH":"3773","INCLINATION":"53.2191","COUNTRY_CODE":"US","TIME_SYSTEM":"UTC","MEAN_ANOMALY":"304.7150","MEAN_ELEMENT_THEORY":"SGP4","GP_ID":"207852393","OBJECT_NAME":"STARLINK-3114","RA_OF_ASC_NODE":"115.0065","MEAN_MOTION":"15.08829520"},{"TIME_SYSTEM":"UTC","INCLINATION":"53.2186","COUNTRY_CODE":"US","TLE_LINE2":"2 49427  53.2186 116.5439 0002749  56.8897 303.2359 15.08821629 36610","REV_AT_EPOCH":"3661","FILE":"3511318","RCS_SIZE":"LARGE","LAUNCH_DATE":"2021-11-13","OBJECT_ID":"2021-104V","OBJECT_TYPE":"PAYLOAD","ELEMENT_SET_NO":"999","PERIOD":"95.439","CENTER_NAME":"EARTH","SEMIMAJOR_AXIS":"6917.937","REF_FRAME":"TEME","MEAN_MOTION":"15.08821629","RA_OF_ASC_NODE":"116.5439","GP_ID":"207875753","OBJECT_NAME":"STARLINK-3131","MEAN_ELEMENT_THEORY":"SGP4","MEAN_ANOMALY":"303.2359","ECCENTRICITY":"0.00027490","PERIAPSIS":"537.900","MEAN_MOTION_DOT":"-0.00005626","APOAPSIS":"541.703","EPOCH":"2022-07-10T11:44:54.166848","EPHEMERIS_TYPE":"0","ARG_OF_PERICENTER":"56.8897","BSTAR":"-0.00033580000000","CLASSIFICATION_TYPE":"U","MEAN_MOTION_DDOT":"0.0000000000000","SITE":"AFETR","NORAD_CAT_ID":"49427","TLE_LINE1":"1 49427U 21104V   22191.48951582 -.00005626  00000-0 -33580-3 0  9994","DECAY_DATE":null},{"MEAN_MOTION_DOT":"-0.00005849","APOAPSIS":"541.956","ECCENTRICITY":"0.00031000","PERIAPSIS":"537.667","MEAN_MOTION_DDOT":"0.0000000000000","SITE":"AFETR","TLE_LINE1":"1 49428U 21104W   22191.28071139 -.00005849  00000-0 -34985-3 0  9991","NORAD_CAT_ID":"49428","DECAY_DATE":null,"EPOCH":"2022-07-10T06:44:13.464096","EPHEMERIS_TYPE":"0","ARG_OF_PERICENTER":"59.3487","CLASSIFICATION_TYPE":"U","BSTAR":"-0.00034985000000","RCS_SIZE":"LARGE","LAUNCH_DATE":"2021-11-13","OBJECT_TYPE":"PAYLOAD","OBJECT_ID":"2021-104W","CENTER_NAME":"EARTH","PERIOD":"95.439","SEMIMAJOR_AXIS":"6917.947","ELEMENT_SET_NO":"999","REF_FRAME":"TEME","COUNTRY_CODE":"US","INCLINATION":"53.2157","TIME_SYSTEM":"UTC","TLE_LINE2":"2 49428  53.2157 117.4810 0003100  59.3487 300.7811 15.08818363 36589","FILE":"3511121","REV_AT_EPOCH":"3658","GP_ID":"207821343","OBJECT_NAME":"STARLINK-3121","MEAN_ELEMENT_THEORY":"SGP4","MEAN_ANOMALY":"300.7811","RA_OF_ASC_NODE":"117.4810","MEAN_MOTION":"15.08818363"},{"CENTER_NAME":"EARTH","PERIOD":"95.439","SEMIMAJOR_AXIS":"6917.946","ELEMENT_SET_NO":"999","REF_FRAME":"TEME","RCS_SIZE":"LARGE","LAUNCH_DATE":"2021-11-13","OBJECT_ID":"2021-104Y","OBJECT_TYPE":"PAYLOAD","TLE_LINE2":"2 49430  53.2191 116.5628 0002750  63.2802 296.8471 15.08818543 36613","FILE":"3511318","REV_AT_EPOCH":"3661","COUNTRY_CODE":"US","INCLINATION":"53.2191","TIME_SYSTEM":"UTC","MEAN_ELEMENT_THEORY":"SGP4","MEAN_ANOMALY":"296.8471","GP_ID":"207876755","OBJECT_NAME":"STARLINK-3138","RA_OF_ASC_NODE":"116.5628","MEAN_MOTION":"15.08818543","APOAPSIS":"541.713","MEAN_MOTION_DOT":"-0.00003366","ECCENTRICITY":"0.00027500","PERIAPSIS":"537.909","TLE_LINE1":"1 49430U 21104Y   22191.48584672 -.00003366  00000-0 -19358-3 0  9996","NORAD_CAT_ID":"49430","DECAY_DATE":null,"SITE":"AFETR","MEAN_MOTION_DDOT":"0.0000000000000","EPHEMERIS_TYPE":"0","ARG_OF_PERICENTER":"63.2802","BSTAR":"-0.00019358000000","CLASSIFICATION_TYPE":"U","EPOCH":"2022-07-10T11:39:37.156608"},{"EPOCH":"2022-07-10T12:18:04.001184","BSTAR":"-0.00004981100000","CLASSIFICATION_TYPE":"U","EPHEMERIS_TYPE":"0","ARG_OF_PERICENTER":"64.5809","MEAN_MOTION_DDOT":"0.0000000000000","SITE":"AFETR","DECAY_DATE":null,"NORAD_CAT_ID":"49431","TLE_LINE1":"1 49431U 21104Z   22191.51254631 -.00001082  00000-0 -49811-4 0  9991","PERIAPSIS":"537.307","ECCENTRICITY":"0.00035020","MEAN_MOTION_DOT":"-0.00001082","APOAPSIS":"542.153","MEAN_MOTION":"15.08845026","RA_OF_ASC_NODE":"116.4268","OBJECT_NAME":"STARLINK-3153","GP_ID":"207876499","MEAN_ELEMENT_THEORY":"SGP4","MEAN_ANOMALY":"295.5545","TIME_SYSTEM":"UTC","INCLINATION":"53.2183","COUNTRY_CODE":"US","REV_AT_EPOCH":"3661","FILE":"3511318","TLE_LINE2":"2 49431  53.2183 116.4268 0003502  64.5809 295.5545 15.08845026 36615","OBJECT_TYPE":"PAYLOAD","OBJECT_ID":"2021-104Z","RCS_SIZE":"LARGE","LAUNCH_DATE":"2021-11-13","REF_FRAME":"TEME","ELEMENT_SET_NO":"999","PERIOD":"95.437","SEMIMAJOR_AXIS":"6917.865","CENTER_NAME":"EARTH"},{"EPOCH":"2022-07-10T18:46:15.450528","BSTAR":"-0.00007430700000","CLASSIFICATION_TYPE":"U","ARG_OF_PERICENTER":"59.0269","EPHEMERIS_TYPE":"0","SITE":"AFETR","MEAN_MOTION_DDOT":"0.0000000000000","DECAY_DATE":null,"NORAD_CAT_ID":"49432","TLE_LINE1":"1 49432U 21104AA  22191.78212327 -.00001470  00000-0 -74307-4 0  9996","PERIAPSIS":"537.758","ECCENTRICITY":"0.00029640","MEAN_MOTION_DOT":"-0.00001470","APOAPSIS":"541.859","MEAN_MOTION":"15.08819342","RA_OF_ASC_NODE":"105.2271","OBJECT_NAME":"STARLINK-3158","GP_ID":"207851984","MEAN_ELEMENT_THEORY":"SGP4","MEAN_ANOMALY":"301.1014","TIME_SYSTEM":"UTC","INCLINATION":"53.2158","COUNTRY_CODE":"US","REV_AT_EPOCH":"3787","FILE":"3511287","TLE_LINE2":"2 49432  53.2158 105.2271 0002964  59.0269 301.1014 15.08819342 37874","OBJECT_ID":"2021-104AA","OBJECT_TYPE":"PAYLOAD","RCS_SIZE":"LARGE","LAUNCH_DATE":"2021-11-13","REF_FRAME":"TEME","ELEMENT_SET_NO":"999","SEMIMAJOR_AXIS":"6917.944","PERIOD":"95.439","CENTER_NAME":"EARTH"},{"EPOCH":"2022-07-10T10:49:15.502368","ARG_OF_PERICENTER":"40.8860","EPHEMERIS_TYPE":"0","BSTAR":"-0.00042356000000","CLASSIFICATION_TYPE":"U","SITE":"AFETR","MEAN_MOTION_DDOT":"0.0000000000000","TLE_LINE1":"1 49433U 21104AB  22191.45087387 -.00007016  00000-0 -42356-3 0  9997","NORAD_CAT_ID":"49433","DECAY_DATE":null,"ECCENTRICITY":"0.00022180","PERIAPSIS":"538.325","MEAN_MOTION_DOT":"-0.00007016","APOAPSIS":"541.394","RA_OF_ASC_NODE":"96.7075","MEAN_MOTION":"15.08802587","GP_ID":"207875503","OBJECT_NAME":"STARLINK-3079","MEAN_ANOMALY":"319.2298","MEAN_ELEMENT_THEORY":"SGP4","INCLINATION":"53.2162","COUNTRY_CODE":"US","TIME_SYSTEM":"UTC","TLE_LINE2":"2 49433  53.2162  96.7075 0002218  40.8860 319.2298 15.08802587 37971","FILE":"3511318","REV_AT_EPOCH":"3797","LAUNCH_DATE":"2021-11-13","RCS_SIZE":"LARGE","OBJECT_TYPE":"PAYLOAD","OBJECT_ID":"2021-104AB","SEMIMAJOR_AXIS":"6917.995","PERIOD":"95.440","CENTER_NAME":"EARTH","ELEMENT_SET_NO":"999","REF_FRAME":"TEME"}];
